[{"OBJECT_NAME":"STARLINK-31606","OBJECT_ID":"2024-076H","EPOCH":"2026-03-09T22:00:01.999584","MEAN_MOTION":15.27570598,"ECCENTRICITY":0.00014715,"INCLINATION":43.0033,"RA_OF_ASC_NODE":7.3104,"ARG_OF_PERICENTER":258.6921,"MEAN_ANOMALY":47.9748,"EPHEMERIS_TYPE":0,"CLASSIFICATION_TYPE":"U","NORAD_CAT_ID":59571,"ELEMENT_SET_NO":999,"REV_AT_EPOCH":585,"BSTAR":0.00010492345,"MEAN_MOTION_DOT":2.625e-5,"MEAN_MOTION_DDOT":0},{"OBJECT_NAME":"PEGASUS R\/B","OBJECT_ID":"2007-015B","EPOCH":"2026-03-09T10:58:33.801024","MEAN_MOTION":15.26741121,"ECCENTRICITY":0.00105976,"INCLINATION":97.9168,"RA_OF_ASC_NODE":31.3919,"ARG_OF_PERICENTER":317.6341,"MEAN_ANOMALY":42.4077,"EPHEMERIS_TYPE":0,"CLASSIFICATION_TYPE":"U","NORAD_CAT_ID":31305,"ELEMENT_SET_NO":999,"REV_AT_EPOCH":3383,"BSTAR":0.00044093522,"MEAN_MOTION_DOT":0.00011537,"MEAN_MOTION_DDOT":0}]
